start=new Date('2022-02-20T00:00:00.000Z').valueOf();
sats=[{"APOAPSIS":"352.467","CENTER_NAME":"EARTH","ELEMENT_SET_NO":"999","ARG_OF_PERICENTER":"6.1116","MEAN_MOTION_DOT":"0.00091430","EPOCH":"2022-02-19T20:00:01.000224","RA_OF_ASC_NODE":"52.2303","COUNTRY_CODE":"US","EPHEMERIS_TYPE":"0","LAUNCH_DATE":"2021-12-18","TIME_SYSTEM":"UTC","PERIAPSIS":"347.200","INCLINATION":"53.2153","BSTAR":"0.00064931000000","MEAN_MOTION":"15.73174372","TLE_LINE1":"1 50204U 21125BA  22050.83334491  .00091430  00000-0  64931-3 0  9999","OBJECT_NAME":"STARLINK-3254","MEAN_ANOMALY":"31.8417","OBJECT_ID":"2021-125BA","RCS_SIZE":"LARGE","FILE":"3308986","TLE_LINE2":"2 50204  53.2153  52.2303 0003914   6.1116  31.8417 15.73174372  3703","MEAN_ELEMENT_THEORY":"SGP4","NORAD_CAT_ID":"50204","PERIOD":"91.535","GP_ID":"196429115","ECCENTRICITY":"0.00039140","DECAY_DATE":null,"SEMIMAJOR_AXIS":"6727.968","REV_AT_EPOCH":"370","CLASSIFICATION_TYPE":"U","REF_FRAME":"TEME","SITE":"AFWTR","OBJECT_TYPE":"PAYLOAD","MEAN_MOTION_DDOT":"0.0000000000000"},{"ECCENTRICITY":"0.00034560","DECAY_DATE":null,"SEMIMAJOR_AXIS":"6727.906","REV_AT_EPOCH":"370","CLASSIFICATION_TYPE":"U","REF_FRAME":"TEME","SITE":"AFWTR","OBJECT_TYPE":"PAYLOAD","MEAN_MOTION_DDOT":"0.0000000000000","RCS_SIZE":"LARGE","FILE":"3308986","TLE_LINE2":"2 50205  53.2155  48.5846 0003456   7.6674 350.0143 15.73196264  3708","MEAN_ELEMENT_THEORY":"SGP4","NORAD_CAT_ID":"50205","PERIOD":"91.533","GP_ID":"196429363","RA_OF_ASC_NODE":"48.5846","COUNTRY_CODE":"US","EPHEMERIS_TYPE":"0","TIME_SYSTEM":"UTC","LAUNCH_DATE":"2021-12-18","PERIAPSIS":"347.446","INCLINATION":"53.2155","BSTAR":"-0.00190470000000","MEAN_MOTION":"15.73196264","TLE_LINE1":"1 50205U 21125BB  22050.83334491 -.00259935  00000-0 -19047-2 0  9995","OBJECT_NAME":"STARLINK-3260","MEAN_ANOMALY":"350.0143","OBJECT_ID":"2021-125BB","APOAPSIS":"352.096","CENTER_NAME":"EARTH","ARG_OF_PERICENTER":"7.6674","ELEMENT_SET_NO":"999","MEAN_MOTION_DOT":"-0.00259935","EPOCH":"2022-02-19T20:00:01.000224"},{"TLE_LINE2":"2 50206  53.2160  52.2420 0003287   8.3392  25.8962 15.73227560  3702","FILE":"3308986","RCS_SIZE":"LARGE","GP_ID":"196430611","PERIOD":"91.532","MEAN_ELEMENT_THEORY":"SGP4","NORAD_CAT_ID":"50206","REV_AT_EPOCH":"370","SEMIMAJOR_AXIS":"6727.817","ECCENTRICITY":"0.00032870","DECAY_DATE":null,"MEAN_MOTION_DDOT":"0.0000000000000","OBJECT_TYPE":"PAYLOAD","SITE":"AFWTR","REF_FRAME":"TEME","CLASSIFICATION_TYPE":"U","CENTER_NAME":"EARTH","APOAPSIS":"351.893","MEAN_MOTION_DOT":"-0.00022407","EPOCH":"2022-02-19T20:00:01.000224","ELEMENT_SET_NO":"999","ARG_OF_PERICENTER":"8.3392","TIME_SYSTEM":"UTC","LAUNCH_DATE":"2021-12-18","EPHEMERIS_TYPE":"0","RA_OF_ASC_NODE":"52.2420","COUNTRY_CODE":"US","OBJECT_NAME":"STARLINK-3258","MEAN_ANOMALY":"25.8962","OBJECT_ID":"2021-125BC","MEAN_MOTION":"15.73227560","TLE_LINE1":"1 50206U 21125BC  22050.83334491 -.00022407  00000-0 -15540-3 0  9993","PERIAPSIS":"347.470","INCLINATION":"53.2160","BSTAR":"-0.00015540000000"},{"TLE_LINE2":"2 50207  53.2147  52.2483 0003161  12.5740  19.8478 15.73170947  3703","FILE":"3308986","RCS_SIZE":"LARGE","GP_ID":"196430865","PERIOD":"91.535","NORAD_CAT_ID":"50207","MEAN_ELEMENT_THEORY":"SGP4","REV_AT_EPOCH":"370","SEMIMAJOR_AXIS":"6727.978","DECAY_DATE":null,"ECCENTRICITY":"0.00031610","MEAN_MOTION_DDOT":"0.0000000000000","OBJECT_TYPE":"PAYLOAD","SITE":"AFWTR","CLASSIFICATION_TYPE":"U","REF_FRAME":"TEME","CENTER_NAME":"EARTH","APOAPSIS":"351.970","EPOCH":"2022-02-19T20:00:01.000224","MEAN_MOTION_DOT":"0.00068728","ELEMENT_SET_NO":"999","ARG_OF_PERICENTER":"12.5740","LAUNCH_DATE":"2021-12-18","TIME_SYSTEM":"UTC","EPHEMERIS_TYPE":"0","COUNTRY_CODE":"US","RA_OF_ASC_NODE":"52.2483","MEAN_ANOMALY":"19.8478","OBJECT_ID":"2021-125BD","OBJECT_NAME":"STARLINK-3262","MEAN_MOTION":"15.73170947","TLE_LINE1":"1 50207U 21125BD  22050.83334491  .00068728  00000-0  49063-3 0  9995","INCLINATION":"53.2147","BSTAR":"0.00049063000000","PERIAPSIS":"347.716"},{"DECAY_DATE":null,"ECCENTRICITY":"0.00016840","REV_AT_EPOCH":"370","SEMIMAJOR_AXIS":"6727.688","SITE":"AFETR","CLASSIFICATION_TYPE":"U","REF_FRAME":"TEME","MEAN_MOTION_DDOT":"0.0000000000000","OBJECT_TYPE":"PAYLOAD","FILE":"3308986","RCS_SIZE":"LARGE","TLE_LINE2":"2 50803  53.2162 341.6353 0001684  42.4312  57.4164 15.73272662  3705","NORAD_CAT_ID":"50803","MEAN_ELEMENT_THEORY":"SGP4","GP_ID":"196429179","PERIOD":"91.529","COUNTRY_CODE":"US","RA_OF_ASC_NODE":"341.6353","TIME_SYSTEM":"UTC","LAUNCH_DATE":"2022-01-06","EPHEMERIS_TYPE":"0","MEAN_MOTION":"15.73272662","TLE_LINE1":"1 50803U 22001A   22050.83334491 -.00068912  00000-0 -48905-3 0  9992","BSTAR":"-0.00048905000000","INCLINATION":"53.2162","PERIAPSIS":"348.420","OBJECT_ID":"2022-001A","MEAN_ANOMALY":"57.4164","OBJECT_NAME":"STARLINK-3321","CENTER_NAME":"EARTH","APOAPSIS":"350.686","ELEMENT_SET_NO":"999","ARG_OF_PERICENTER":"42.4312","EPOCH":"2022-02-19T20:00:01.000224","MEAN_MOTION_DOT":"-0.00068912"},{"RCS_SIZE":"LARGE","FILE":"3308986","TLE_LINE2":"2 50804  53.2167 341.6360 0001848  29.0728  71.4357 15.73264474  3705","NORAD_CAT_ID":"50804","MEAN_ELEMENT_THEORY":"SGP4","PERIOD":"91.529","GP_ID":"196429928","DECAY_DATE":null,"ECCENTRICITY":"0.00018480","SEMIMAJOR_AXIS":"6727.711","REV_AT_EPOCH":"370","REF_FRAME":"TEME","CLASSIFICATION_TYPE":"U","SITE":"AFETR","OBJECT_TYPE":"PAYLOAD","MEAN_MOTION_DDOT":"0.0000000000000","APOAPSIS":"350.820","CENTER_NAME":"EARTH","ELEMENT_SET_NO":"999","ARG_OF_PERICENTER":"29.0728","EPOCH":"2022-02-19T20:00:01.000224","MEAN_MOTION_DOT":"-0.00066200","COUNTRY_CODE":"US","RA_OF_ASC_NODE":"341.6360","EPHEMERIS_TYPE":"0","TIME_SYSTEM":"UTC","LAUNCH_DATE":"2022-01-06","BSTAR":"-0.00046963000000","INCLINATION":"53.2167","PERIAPSIS":"348.333","MEAN_MOTION":"15.73264474","TLE_LINE1":"1 50804U 22001B   22050.83334491 -.00066200  00000-0 -46963-3 0  9993","OBJECT_ID":"2022-001B","MEAN_ANOMALY":"71.4357","OBJECT_NAME":"STARLINK-3323"},{"DECAY_DATE":null,"ECCENTRICITY":"0.00015720","REV_AT_EPOCH":"370","SEMIMAJOR_AXIS":"6727.674","SITE":"AFETR","CLASSIFICATION_TYPE":"U","REF_FRAME":"TEME","MEAN_MOTION_DDOT":"0.0000000000000","OBJECT_TYPE":"PAYLOAD","FILE":"3308986","RCS_SIZE":"LARGE","TLE_LINE2":"2 50805  53.2168 341.6352 0001572  40.4627  60.6915 15.73277444  3708","MEAN_ELEMENT_THEORY":"SGP4","NORAD_CAT_ID":"50805","GP_ID":"196430675","PERIOD":"91.529","COUNTRY_CODE":"US","RA_OF_ASC_NODE":"341.6352","LAUNCH_DATE":"2022-01-06","TIME_SYSTEM":"UTC","EPHEMERIS_TYPE":"0","MEAN_MOTION":"15.73277444","TLE_LINE1":"1 50805U 22001C   22050.83334491 -.00067081  00000-0 -47575-3 0  9992","INCLINATION":"53.2168","BSTAR":"-0.00047575000000","PERIAPSIS":"348.482","MEAN_ANOMALY":"60.6915","OBJECT_ID":"2022-001C","OBJECT_NAME":"STARLINK-3333","CENTER_NAME":"EARTH","APOAPSIS":"350.597","ARG_OF_PERICENTER":"40.4627","ELEMENT_SET_NO":"999","EPOCH":"2022-02-19T20:00:01.000224","MEAN_MOTION_DOT":"-0.00067081"},{"TLE_LINE1":"1 50806U 22001D   22050.83334491  .00034882  00000-0  25187-3 0  9999","MEAN_MOTION":"15.73204382","BSTAR":"0.00025187000000","INCLINATION":"53.2176","PERIAPSIS":"348.708","OBJECT_ID":"2022-001D","MEAN_ANOMALY":"57.3429","OBJECT_NAME":"STARLINK-3335","COUNTRY_CODE":"US","RA_OF_ASC_NODE":"341.6322","TIME_SYSTEM":"UTC","LAUNCH_DATE":"2022-01-06","EPHEMERIS_TYPE":"0","ARG_OF_PERICENTER":"44.4810","ELEMENT_SET_NO":"999","EPOCH":"2022-02-19T20:00:01.000224","MEAN_MOTION_DOT":"0.00034882","CENTER_NAME":"EARTH","APOAPSIS":"350.788","SITE":"AFETR","CLASSIFICATION_TYPE":"U","REF_FRAME":"TEME","MEAN_MOTION_DDOT":"0.0000000000000","OBJECT_TYPE":"PAYLOAD","DECAY_DATE":null,"ECCENTRICITY":"0.00015460","REV_AT_EPOCH":"370","SEMIMAJOR_AXIS":"6727.883","NORAD_CAT_ID":"50806","MEAN_ELEMENT_THEORY":"SGP4","GP_ID":"196431273","PERIOD":"91.533","FILE":"3308986","RCS_SIZE":"LARGE","TLE_LINE2":"2 50806  53.2176 341.6322 0001546  44.4810  57.3429 15.73204382  3708"},{"PERIOD":"91.531","GP_ID":"196429680","NORAD_CAT_ID":"50807","MEAN_ELEMENT_THEORY":"SGP4","TLE_LINE2":"2 50807  53.2163 341.6265 0001274  44.8481  59.3697 15.73234049  3709","RCS_SIZE":"LARGE","FILE":"3308986","OBJECT_TYPE":"PAYLOAD","MEAN_MOTION_DDOT":"0.0000000000000","CLASSIFICATION_TYPE":"U","REF_FRAME":"TEME","SITE":"AFETR","SEMIMAJOR_AXIS":"6727.798","REV_AT_EPOCH":"370","ECCENTRICITY":"0.00012740","DECAY_DATE":null,"MEAN_MOTION_DOT":"0.00014754","EPOCH":"2022-02-19T20:00:01.000224","ELEMENT_SET_NO":"999","ARG_OF_PERICENTER":"44.8481","APOAPSIS":"350.520","CENTER_NAME":"EARTH","OBJECT_NAME":"STARLINK-3353","OBJECT_ID":"2022-001E","MEAN_ANOMALY":"59.3697","PERIAPSIS":"348.806","BSTAR":"0.00010920000000","INCLINATION":"53.2163","MEAN_MOTION":"15.73234049","TLE_LINE1":"1 50807U 22001E   22050.83334491  .00014754  00000-0  10920-3 0  9995","EPHEMERIS_TYPE":"0","TIME_SYSTEM":"UTC","LAUNCH_DATE":"2022-01-06","RA_OF_ASC_NODE":"341.6265","COUNTRY_CODE":"US"},{"MEAN_ELEMENT_THEORY":"SGP4","NORAD_CAT_ID":"50808","GP_ID":"196430429","PERIOD":"91.530","FILE":"3308986","RCS_SIZE":"LARGE","TLE_LINE2":"2 50808  53.2168 341.6307 0001976  32.6497  70.4180 15.73262195  3707","SITE":"AFETR","REF_FRAME":"TEME","CLASSIFICATION_TYPE":"U","MEAN_MOTION_DDOT":"0.0000000000000","OBJECT_TYPE":"PAYLOAD","ECCENTRICITY":"0.00019760","DECAY_DATE":null,"REV_AT_EPOCH":"370","SEMIMAJOR_AXIS":"6727.718","ARG_OF_PERICENTER":"32.6497","ELEMENT_SET_NO":"999","MEAN_MOTION_DOT":"-0.00056431","EPOCH":"2022-02-19T20:00:01.000224","CENTER_NAME":"EARTH","APOAPSIS":"350.912","MEAN_MOTION":"15.73262195","TLE_LINE1":"1 50808U 22001F   22050.83334491 -.00056431  00000-0 -39924-3 0  9991","PERIAPSIS":"348.253","INCLINATION":"53.2168","BSTAR":"-0.00039924000000","OBJECT_NAME":"STARLINK-3355","OBJECT_ID":"2022-001F","MEAN_ANOMALY":"70.4180","RA_OF_ASC_NODE":"341.6307","COUNTRY_CODE":"US","LAUNCH_DATE":"2022-01-06","TIME_SYSTEM":"UTC","EPHEMERIS_TYPE":"0"}];
